STARLINK-30327          
1 57707U 23129K   26068.51769668  .00007635  00000+0  29314-3 0  9995
2 57707  42.9974  85.9834 0023030  70.8320 289.5022 15.26626807140903
STARLINK-31940          
1 59873U 24098R   26068.55527965  .00000218  00000+0  17422-4 0  9991
2 59873  43.0013 271.1418 0000520 241.0178 119.0622 15.27575351101913
